STARLINK-37963          
1 69709U 26147F   26183.66668980 -.02339761  15392-2 -57891-2 0  9997
2 69709  97.2838 219.2943 0001439  78.1465  27.2808 15.96117361  1736
STARLINK-37969          
1 69710U 26147G   26183.66668980 -.02323618  15219-2 -56921-2 0  9994
2 69710  97.2838 219.2951 0001351  78.6006  28.1379 15.96301709  1886
STARLINK-37956          
1 69711U 26147H   26183.66668980 -.02291309  14838-2 -55662-2 0  9993
2 69711  97.2838 219.2955 0001327  77.5058  30.2858 15.96454281  1733
STARLINK-38043          
1 69712U 26147J   26183.66668980 -.02276184  14679-2 -54762-2 0  9991
2 69712  97.2836 219.2958 0001425  85.1064  23.9523 15.96631836  1737
STARLINK-38020          
1 69713U 26147K   26183.66668980 -.02263067  14546-2 -53920-2 0  9996
2 69713  97.2835 219.2966 0001438  84.8512  25.5082 15.96809806  1736
STARLINK-38059          
1 69714U 26147L   26183.66668980 -.02237733  14259-2 -52859-2 0  9999
2 69714  97.2836 219.2970 0001429  85.0482  26.4715 15.96966534  1737
STARLINK-38061          
1 69715U 26147M   26183.66668980 -.02220940  14080-2 -51993-2 0  9992
2 69715  97.2835 219.2973 0001453  83.5831  29.1394 15.97130141  1829
STARLINK-38060          
1 69716U 26147N   26183.66668980 -.02199980  13850-2 -51067-2 0  9998
2 69716  97.2835 219.2977 0001448  84.8212  29.0454 15.97284332  1823
STARLINK-38040          
1 69717U 26147P   26183.66668980 -.02179514  13626-2 -50182-2 0  9998
2 69717  97.2835 219.2982 0001437  82.6359  32.3112 15.97431663  1825
STARLINK-37989          
1 69718U 26147Q   26183.66668980 -.02175817  13609-2 -49630-2 0  9998
2 69718  97.2834 219.2988 0001534  82.3024  33.8856 15.97601954  1828
STARLINK-38039          
1 69719U 26147R   26183.66668980 -.02155811  13392-2 -48772-2 0  9996
2 69719  97.2834 219.2991 0001523  80.7710  36.5484 15.97749830  1828
STARLINK-38003          
1 69720U 26147S   26183.66668980 -.02149003  13338-2 -48158-2 0  9992
2 69720  97.2833 219.2996 0001455  85.1555  33.4940 15.97922342  1828
STARLINK-38014          
1 69721U 26147T   26183.66668980 -.02129324  13125-2 -47358-2 0  9992
2 69721  97.2832 219.3001 0001492  83.0433  36.6237 15.98057373  1827
STARLINK-37915          
1 69722U 26147U   26183.66668980 -.02123193  13078-2 -46788-2 0  9994
2 69722  97.2833 219.3008 0001474  86.7139  34.2412 15.98224113  1826
STARLINK-38007          
1 69723U 26147V   26183.66668980 -.02095900  12778-2 -45850-2 0  9994
2 69723  97.2834 219.3011 0001386  85.3284  36.6963 15.98354512  1824
STARLINK-38008          
1 69724U 26147W   26183.66668980 -.02086810  12692-2 -45309-2 0  9999
2 69724  97.2834 219.3016 0001451  85.1098  37.8949 15.98489227  1823
STARLINK-38021          
1 69725U 26147X   26183.66668980 -.02081871  12657-2 -44810-2 0  9999
2 69725  97.2832 219.3022 0001418  86.5531  37.9625 15.98645819  1822
STARLINK-38015          
1 69726U 26147Y   26183.66668980 -.02074223  12590-2 -44291-2 0  9992
2 69726  97.2833 219.3028 0001459  82.5459  43.0697 15.98788434  1828
STARLINK-38010          
1 69727U 26147Z   26183.66668980 -.02058648  12430-2 -43621-2 0  9995
2 69727  97.2832 219.3033 0001423  83.4566  43.2678 15.98925481  1820
SXM-11                  
1 69728U 26148A   26182.81095254 -.00000235  00000+0  00000+0 0  9995
2 69728  26.8832 144.5813 6480880 177.3988 189.3958  3.36250226   110
HAIYANG-2E              
1 69737U 26149A   26183.76052574 -.00664220  00000+0 -59676+0 0  9993
2 69737  99.3459 190.8409 0013469 248.7720 111.1997 13.87050160   119
CZ-4B R/B               
1 69738U 26149B   26183.59788567 -.00001753  00000+0 -52931-3 0  9990
2 69738  99.3194 190.7166 0199015   6.2176 354.1405 14.30064476   330
