OBJECT_NAME,OBJECT_ID,EPOCH,MEAN_MOTION,ECCENTRICITY,INCLINATION,RA_OF_ASC_NODE,ARG_OF_PERICENTER,MEAN_ANOMALY,EPHEMERIS_TYPE,CLASSIFICATION_TYPE,NORAD_CAT_ID,ELEMENT_SET_NO,REV_AT_EPOCH,BSTAR,MEAN_MOTION_DOT,MEAN_MOTION_DDOT
STARLINK-37963,2026-147F,2026-07-02T16:00:01.998720,15.96117361,.0001439,97.2838,219.2943,78.1465,27.2808,0,U,69709,999,173,-.57891E-2,-.2339761E-1,.15392E-2
STARLINK-37969,2026-147G,2026-07-02T16:00:01.998720,15.96301709,.0001351,97.2838,219.2951,78.6006,28.1379,0,U,69710,999,188,-.56921E-2,-.2323618E-1,.15219E-2
STARLINK-37956,2026-147H,2026-07-02T16:00:01.998720,15.96454281,.0001327,97.2838,219.2955,77.5058,30.2858,0,U,69711,999,173,-.55662E-2,-.2291309E-1,.14838E-2
STARLINK-38043,2026-147J,2026-07-02T16:00:01.998720,15.96631836,.0001425,97.2836,219.2958,85.1064,23.9523,0,U,69712,999,173,-.54762E-2,-.2276184E-1,.14679E-2
STARLINK-38020,2026-147K,2026-07-02T16:00:01.998720,15.96809806,.0001438,97.2835,219.2966,84.8512,25.5082,0,U,69713,999,173,-.5392E-2,-.2263067E-1,.14546E-2
STARLINK-38059,2026-147L,2026-07-02T16:00:01.998720,15.96966534,.0001429,97.2836,219.2970,85.0482,26.4715,0,U,69714,999,173,-.52859E-2,-.2237733E-1,.14259E-2
STARLINK-38061,2026-147M,2026-07-02T16:00:01.998720,15.97130141,.0001453,97.2835,219.2973,83.5831,29.1394,0,U,69715,999,182,-.51993E-2,-.222094E-1,.1408E-2
STARLINK-38060,2026-147N,2026-07-02T16:00:01.998720,15.97284332,.0001448,97.2835,219.2977,84.8212,29.0454,0,U,69716,999,182,-.51067E-2,-.219998E-1,.1385E-2
STARLINK-38040,2026-147P,2026-07-02T16:00:01.998720,15.97431663,.0001437,97.2835,219.2982,82.6359,32.3112,0,U,69717,999,182,-.50182E-2,-.2179514E-1,.13626E-2
STARLINK-37989,2026-147Q,2026-07-02T16:00:01.998720,15.97601954,.0001534,97.2834,219.2988,82.3024,33.8856,0,U,69718,999,182,-.4963E-2,-.2175817E-1,.13609E-2
STARLINK-38039,2026-147R,2026-07-02T16:00:01.998720,15.97749830,.0001523,97.2834,219.2991,80.7710,36.5484,0,U,69719,999,182,-.48772E-2,-.2155811E-1,.13392E-2
STARLINK-38003,2026-147S,2026-07-02T16:00:01.998720,15.97922342,.0001455,97.2833,219.2996,85.1555,33.4940,0,U,69720,999,182,-.48158E-2,-.2149003E-1,.13338E-2
STARLINK-38014,2026-147T,2026-07-02T16:00:01.998720,15.98057373,.0001492,97.2832,219.3001,83.0433,36.6237,0,U,69721,999,182,-.47358E-2,-.2129324E-1,.13125E-2
STARLINK-37915,2026-147U,2026-07-02T16:00:01.998720,15.98224113,.0001474,97.2833,219.3008,86.7139,34.2412,0,U,69722,999,182,-.46788E-2,-.2123193E-1,.13078E-2
STARLINK-38007,2026-147V,2026-07-02T16:00:01.998720,15.98354512,.0001386,97.2834,219.3011,85.3284,36.6963,0,U,69723,999,182,-.4585E-2,-.20959E-1,.12778E-2
STARLINK-38008,2026-147W,2026-07-02T16:00:01.998720,15.98489227,.0001451,97.2834,219.3016,85.1098,37.8949,0,U,69724,999,182,-.45309E-2,-.208681E-1,.12692E-2
STARLINK-38021,2026-147X,2026-07-02T16:00:01.998720,15.98645819,.0001418,97.2832,219.3022,86.5531,37.9625,0,U,69725,999,182,-.4481E-2,-.2081871E-1,.12657E-2
STARLINK-38015,2026-147Y,2026-07-02T16:00:01.998720,15.98788434,.0001459,97.2833,219.3028,82.5459,43.0697,0,U,69726,999,182,-.44291E-2,-.2074223E-1,.1259E-2
STARLINK-38010,2026-147Z,2026-07-02T16:00:01.998720,15.98925481,.0001423,97.2832,219.3033,83.4566,43.2678,0,U,69727,999,182,-.43621E-2,-.2058648E-1,.1243E-2
SXM-11,2026-148A,2026-07-01T19:27:46.299456,3.36250226,.64808807,26.8832,144.5813,177.3988,189.3958,0,U,69728,999,11,0,-.235E-5,0
HAIYANG-2E,2026-149A,2026-07-02T18:15:09.423936,13.87050160,.0013469,99.3459,190.8409,248.7720,111.1997,0,U,69737,999,11,-.59676E+0,-.66422E-2,0
CZ-4B R/B,2026-149B,2026-07-02T14:20:57.321888,14.30064476,.01990153,99.3194,190.7166,6.2176,354.1405,0,U,69738,999,33,-.52930882E-3,-.1753E-4,0
